[{"OBJECT_NAME":"STARLINK-32341","OBJECT_ID":"2024-191U","EPOCH":"2025-10-22T02:56:17.098368","MEAN_MOTION":15.27579207,"ECCENTRICITY":0.0001034,"INCLINATION":43.0026,"RA_OF_ASC_NODE":217.1216,"ARG_OF_PERICENTER":306.4918,"MEAN_ANOMALY":53.5838,"EPHEMERIS_TYPE":0,"CLASSIFICATION_TYPE":"U","NORAD_CAT_ID":61639,"ELEMENT_SET_NO":999,"REV_AT_EPOCH":5634,"BSTAR":0.00010880304,"MEAN_MOTION_DOT":2.733e-5,"MEAN_MOTION_DDOT":0},{"OBJECT_NAME":"STARLINK-32339","OBJECT_ID":"2024-191V","EPOCH":"2025-10-22T11:34:58.933056","MEAN_MOTION":15.27571355,"ECCENTRICITY":7.49e-5,"INCLINATION":43.0027,"RA_OF_ASC_NODE":214.6575,"ARG_OF_PERICENTER":291.0057,"MEAN_ANOMALY":69.0714,"EPHEMERIS_TYPE":0,"CLASSIFICATION_TYPE":"U","NORAD_CAT_ID":61640,"ELEMENT_SET_NO":999,"REV_AT_EPOCH":5639,"BSTAR":2.0094e-5,"MEAN_MOTION_DOT":2.91e-6,"MEAN_MOTION_DDOT":0},{"OBJECT_NAME":"STARLINK-32327","OBJECT_ID":"2024-191W","EPOCH":"2025-10-22T11:55:20.610048","MEAN_MOTION":15.27560966,"ECCENTRICITY":0.000159,"INCLINATION":42.9952,"RA_OF_ASC_NODE":214.7677,"ARG_OF_PERICENTER":76.2772,"MEAN_ANOMALY":283.8256,"EPHEMERIS_TYPE":0,"CLASSIFICATION_TYPE":"U","NORAD_CAT_ID":61641,"ELEMENT_SET_NO":999,"REV_AT_EPOCH":5640,"BSTAR":5.0553e-5,"MEAN_MOTION_DOT":1.128e-5,"MEAN_MOTION_DDOT":0},{"OBJECT_NAME":"STARLINK-32264","OBJECT_ID":"2024-191X","EPOCH":"2025-10-22T04:50:06.022176","MEAN_MOTION":15.27569626,"ECCENTRICITY":6.288e-5,"INCLINATION":43.0026,"RA_OF_ASC_NODE":220.3184,"ARG_OF_PERICENTER":224.5751,"MEAN_ANOMALY":135.505,"EPHEMERIS_TYPE":0,"CLASSIFICATION_TYPE":"U","NORAD_CAT_ID":61642,"ELEMENT_SET_NO":999,"REV_AT_EPOCH":5631,"BSTAR":8.8818943e-5,"MEAN_MOTION_DOT":2.182e-5,"MEAN_MOTION_DDOT":0},{"OBJECT_NAME":"STARLINK-32337","OBJECT_ID":"2024-191Y","EPOCH":"2025-10-22T12:06:25.790688","MEAN_MOTION":15.27563115,"ECCENTRICITY":0.0001417,"INCLINATION":43.0095,"RA_OF_ASC_NODE":214.8198,"ARG_OF_PERICENTER":271.49,"MEAN_ANOMALY":88.5789,"EPHEMERIS_TYPE":0,"CLASSIFICATION_TYPE":"U","NORAD_CAT_ID":61643,"ELEMENT_SET_NO":999,"REV_AT_EPOCH":5716,"BSTAR":9.5767e-5,"MEAN_MOTION_DOT":2.373e-5,"MEAN_MOTION_DDOT":0},{"OBJECT_NAME":"STARLINK-32238","OBJECT_ID":"2024-193A","EPOCH":"2025-10-22T11:33:32.764608","MEAN_MOTION":15.3018701,"ECCENTRICITY":0.0001275,"INCLINATION":53.1614,"RA_OF_ASC_NODE":13.1669,"ARG_OF_PERICENTER":77.0965,"MEAN_ANOMALY":283.0179,"EPHEMERIS_TYPE":0,"CLASSIFICATION_TYPE":"U","NORAD_CAT_ID":61661,"ELEMENT_SET_NO":999,"REV_AT_EPOCH":5536,"BSTAR":3.3661e-5,"MEAN_MOTION_DOT":6.38e-6,"MEAN_MOTION_DDOT":0},{"OBJECT_NAME":"STARLINK-32310","OBJECT_ID":"2024-193B","EPOCH":"2025-10-22T11:04:40.490400","MEAN_MOTION":15.30188588,"ECCENTRICITY":0.0001062,"INCLINATION":53.1613,"RA_OF_ASC_NODE":13.0378,"ARG_OF_PERICENTER":99.1848,"MEAN_ANOMALY":260.9273,"EPHEMERIS_TYPE":0,"CLASSIFICATION_TYPE":"U","NORAD_CAT_ID":61662,"ELEMENT_SET_NO":999,"REV_AT_EPOCH":5536,"BSTAR":2.7803e-5,"MEAN_MOTION_DOT":4.64e-6,"MEAN_MOTION_DDOT":0},{"OBJECT_NAME":"STARLINK-32308","OBJECT_ID":"2024-193C","EPOCH":"2025-10-22T12:02:15.402624","MEAN_MOTION":15.301855,"ECCENTRICITY":0.0001015,"INCLINATION":53.162,"RA_OF_ASC_NODE":12.5772,"ARG_OF_PERICENTER":69.5752,"MEAN_ANOMALY":290.5357,"EPHEMERIS_TYPE":0,"CLASSIFICATION_TYPE":"U","NORAD_CAT_ID":61663,"ELEMENT_SET_NO":999,"REV_AT_EPOCH":5537,"BSTAR":5.7846e-5,"MEAN_MOTION_DOT":1.354e-5,"MEAN_MOTION_DDOT":0},{"OBJECT_NAME":"STARLINK-32301","OBJECT_ID":"2024-193D","EPOCH":"2025-10-22T11:44:11.493888","MEAN_MOTION":15.30190436,"ECCENTRICITY":0.000104,"INCLINATION":53.1611,"RA_OF_ASC_NODE":13.2149,"ARG_OF_PERICENTER":67.0159,"MEAN_ANOMALY":293.0952,"EPHEMERIS_TYPE":0,"CLASSIFICATION_TYPE":"U","NORAD_CAT_ID":61664,"ELEMENT_SET_NO":999,"REV_AT_EPOCH":5536,"BSTAR":-5.5416e-5,"MEAN_MOTION_DOT":-1.999e-5,"MEAN_MOTION_DDOT":0},{"OBJECT_NAME":"STARLINK-32439","OBJECT_ID":"2024-193E","EPOCH":"2025-10-22T11:51:47.565792","MEAN_MOTION":15.30183157,"ECCENTRICITY":0.0001367,"INCLINATION":53.1625,"RA_OF_ASC_NODE":13.238,"ARG_OF_PERICENTER":103.9066,"MEAN_ANOMALY":256.2086,"EPHEMERIS_TYPE":0,"CLASSIFICATION_TYPE":"U","NORAD_CAT_ID":61665,"ELEMENT_SET_NO":999,"REV_AT_EPOCH":5536,"BSTAR":-2.8831e-5,"MEAN_MOTION_DOT":-1.212e-5,"MEAN_MOTION_DDOT":0},{"OBJECT_NAME":"STARLINK-32428","OBJECT_ID":"2024-193F","EPOCH":"2025-10-22T12:22:01.644384","MEAN_MOTION":15.30179571,"ECCENTRICITY":0.0001326,"INCLINATION":53.1627,"RA_OF_ASC_NODE":12.6669,"ARG_OF_PERICENTER":96.4931,"MEAN_ANOMALY":263.6221,"EPHEMERIS_TYPE":0,"CLASSIFICATION_TYPE":"U","NORAD_CAT_ID":61666,"ELEMENT_SET_NO":999,"REV_AT_EPOCH":5537,"BSTAR":5.3918e-6,"MEAN_MOTION_DOT":-2.0e-6,"MEAN_MOTION_DDOT":0},{"OBJECT_NAME":"STARLINK-32414","OBJECT_ID":"2024-193G","EPOCH":"2025-10-22T11:35:04.517088","MEAN_MOTION":15.30185736,"ECCENTRICITY":0.0001422,"INCLINATION":53.1599,"RA_OF_ASC_NODE":13.1719,"ARG_OF_PERICENTER":93.894,"MEAN_ANOMALY":266.2223,"EPHEMERIS_TYPE":0,"CLASSIFICATION_TYPE":"U","NORAD_CAT_ID":61667,"ELEMENT_SET_NO":999,"REV_AT_EPOCH":5536,"BSTAR":-4.6941e-5,"MEAN_MOTION_DOT":-1.749e-5,"MEAN_MOTION_DDOT":0},{"OBJECT_NAME":"STARLINK-32441","OBJECT_ID":"2024-193H","EPOCH":"2025-10-22T11:22:54.460416","MEAN_MOTION":15.30192415,"ECCENTRICITY":0.0001124,"INCLINATION":53.1608,"RA_OF_ASC_NODE":13.1206,"ARG_OF_PERICENTER":96.5833,"MEAN_ANOMALY":263.5296,"EPHEMERIS_TYPE":0,"CLASSIFICATION_TYPE":"U","NORAD_CAT_ID":61668,"ELEMENT_SET_NO":999,"REV_AT_EPOCH":5536,"BSTAR":4.4949e-5,"MEAN_MOTION_DOT":9.72e-6,"MEAN_MOTION_DDOT":0},{"OBJECT_NAME":"STARLINK-32400","OBJECT_ID":"2024-193J","EPOCH":"2025-10-22T10:56:19.366080","MEAN_MOTION":15.3018635,"ECCENTRICITY":0.0001067,"INCLINATION":53.1614,"RA_OF_ASC_NODE":10.8748,"ARG_OF_PERICENTER":106.876,"MEAN_ANOMALY":253.2358,"EPHEMERIS_TYPE":0,"CLASSIFICATION_TYPE":"U","NORAD_CAT_ID":61669,"ELEMENT_SET_NO":999,"REV_AT_EPOCH":5539,"BSTAR":4.4169e-5,"MEAN_MOTION_DOT":9.49e-6,"MEAN_MOTION_DDOT":0},{"OBJECT_NAME":"STARLINK-32449","OBJECT_ID":"2024-193K","EPOCH":"2025-10-22T11:13:47.561376","MEAN_MOTION":15.30188969,"ECCENTRICITY":8.39e-5,"INCLINATION":53.1603,"RA_OF_ASC_NODE":13.0799,"ARG_OF_PERICENTER":87.4605,"MEAN_ANOMALY":272.6492,"EPHEMERIS_TYPE":0,"CLASSIFICATION_TYPE":"U","NORAD_CAT_ID":61670,"ELEMENT_SET_NO":999,"REV_AT_EPOCH":5536,"BSTAR":1.5204e-5,"MEAN_MOTION_DOT":9.1e-7,"MEAN_MOTION_DDOT":0},{"OBJECT_NAME":"STARLINK-32453","OBJECT_ID":"2024-193L","EPOCH":"2025-10-22T12:29:36.471264","MEAN_MOTION":15.30196059,"ECCENTRICITY":8.78e-5,"INCLINATION":53.1614,"RA_OF_ASC_NODE":12.6951,"ARG_OF_PERICENTER":119.147,"MEAN_ANOMALY":240.9619,"EPHEMERIS_TYPE":0,"CLASSIFICATION_TYPE":"U","NORAD_CAT_ID":61671,"ELEMENT_SET_NO":999,"REV_AT_EPOCH":5537,"BSTAR":-6.7741e-6,"MEAN_MOTION_DOT":-5.59e-6,"MEAN_MOTION_DDOT":0},{"OBJECT_NAME":"STARLINK-32443","OBJECT_ID":"2024-193M","EPOCH":"2025-10-22T12:26:33.938304","MEAN_MOTION":15.30194651,"ECCENTRICITY":0.0001047,"INCLINATION":53.161,"RA_OF_ASC_NODE":12.6819,"ARG_OF_PERICENTER":99.8122,"MEAN_ANOMALY":260.2997,"EPHEMERIS_TYPE":0,"CLASSIFICATION_TYPE":"U","NORAD_CAT_ID":61672,"ELEMENT_SET_NO":999,"REV_AT_EPOCH":5537,"BSTAR":7.398e-6,"MEAN_MOTION_DOT":-1.4e-6,"MEAN_MOTION_DDOT":0}]
