61639,STARLINK-32341,2024,94.27,-1.0,+,43.0,Active,0,LEO,USA,USA,Unknown,Unknown,Unknown,1 61639U 24191U   25295.12242012  .00002733  00000+0  10880-3 0  9993,2 61639  43.0026 217.1216 0001034 306.4918  53.5838 15.27579207 56346,15.27579207,0.0001034,LEO
61640,STARLINK-32339,2024,94.27,-1.0,+,43.0,Active,0,LEO,USA,USA,Unknown,Unknown,Unknown,1 61640U 24191V   25295.48262654  .00000291  00000+0  20094-4 0  9994,2 61640  43.0027 214.6575 0000749 291.0057  69.0714 15.27571355 56390,15.27571355,7.49e-05,LEO
61641,STARLINK-32327,2024,94.27,-1.0,+,43.0,Active,0,LEO,USA,USA,Unknown,Unknown,Unknown,1 61641U 24191W   25295.49676632  .00001128  00000+0  50553-4 0  9994,2 61641  42.9952 214.7677 0001590  76.2772 283.8256 15.27560966 56407,15.27560966,0.000159,LEO
61642,STARLINK-32264,2024,94.27,-1.0,+,43.0,Active,0,LEO,USA,USA,Unknown,Unknown,Unknown,1 61642U 24191X   25295.20145859  .00002182  00000+0  88819-4 0  9993,2 61642  43.0026 220.3184 0000628 224.5751 135.5050 15.27569626 56311,15.27569626,6.28e-05,LEO
61643,STARLINK-32337,2024,94.27,-1.0,+,43.01,Active,0,LEO,USA,USA,Unknown,Unknown,Unknown,1 61643U 24191Y   25295.50446517  .00002373  00000+0  95767-4 0  9994,2 61643  43.0095 214.8198 0001417 271.4900  88.5789 15.27563115 57162,15.27563115,0.0001417,LEO
61661,STARLINK-32238,2024,94.11,-1.0,+,53.16,Active,0,LEO,USA,USA,Unknown,Unknown,Unknown,1 61661U 24193A   25295.48162922  .00000638  00000+0  33661-4 0  9995,2 61661  53.1614  13.1669 0001275  77.0965 283.0179 15.30187010 55362,15.3018701,0.0001275,LEO
61662,STARLINK-32310,2024,94.11,-1.0,+,53.16,Active,0,LEO,USA,USA,Unknown,Unknown,Unknown,1 61662U 24193B   25295.46157975  .00000464  00000+0  27803-4 0  9994,2 61662  53.1613  13.0378 0001062  99.1848 260.9273 15.30188588 55367,15.30188588,0.0001062,LEO
61663,STARLINK-32308,2024,94.11,-1.0,+,53.16,Active,0,LEO,USA,USA,Unknown,Unknown,Unknown,1 61663U 24193C   25295.50156716  .00001354  00000+0  57846-4 0  9991,2 61663  53.1620  12.5772 0001015  69.5752 290.5357 15.30185500 55375,15.301855,0.0001015,LEO
61664,STARLINK-32301,2024,94.11,-1.0,+,53.16,Active,0,LEO,USA,USA,Unknown,Unknown,Unknown,1 61664U 24193D   25295.48902192 -.00001999  00000+0 -55416-4 0  9994,2 61664  53.1611  13.2149 0001040  67.0159 293.0952 15.30190436 55366,15.30190436,0.000104,LEO
61665,STARLINK-32439,2024,94.11,-1.0,+,53.16,Active,0,LEO,USA,USA,Unknown,Unknown,Unknown,1 61665U 24193E   25295.49430053 -.00001212  00000+0 -28831-4 0  9997,2 61665  53.1625  13.2380 0001367 103.9066 256.2086 15.30183157 55369,15.30183157,0.0001367,LEO
61666,STARLINK-32428,2024,94.11,-1.0,+,53.16,Active,0,LEO,USA,USA,Unknown,Unknown,Unknown,1 61666U 24193F   25295.51529681 -.00000200  00000+0  53918-5 0  9997,2 61666  53.1627  12.6669 0001326  96.4931 263.6221 15.30179571 55376,15.30179571,0.0001326,LEO
61667,STARLINK-32414,2024,94.11,-1.0,+,53.16,Active,0,LEO,USA,USA,Unknown,Unknown,Unknown,1 61667U 24193G   25295.48269117 -.00001749  00000+0 -46941-4 0  9996,2 61667  53.1599  13.1719 0001422  93.8940 266.2223 15.30185736 55365,15.30185736,0.0001422,LEO
61668,STARLINK-32441,2024,94.11,-1.0,+,53.16,Active,0,LEO,USA,USA,Unknown,Unknown,Unknown,1 61668U 24193H   25295.47424144  .00000972  00000+0  44949-4 0  9990,2 61668  53.1608  13.1206 0001124  96.5833 263.5296 15.30192415 55360,15.30192415,0.0001124,LEO
61669,STARLINK-32400,2024,94.11,-1.0,+,53.16,Active,0,LEO,USA,USA,Unknown,Unknown,Unknown,1 61669U 24193J   25295.45577970  .00000949  00000+0  44169-4 0  9993,2 61669  53.1614  10.8748 0001067 106.8760 253.2358 15.30186350 55392,15.3018635,0.0001067,LEO
61670,STARLINK-32449,2024,94.11,-1.0,+,53.16,Active,0,LEO,USA,USA,Unknown,Unknown,Unknown,1 61670U 24193K   25295.46791159  .00000091  00000+0  15204-4 0  9999,2 61670  53.1603  13.0799 0000839  87.4605 272.6492 15.30188969 55360,15.30188969,8.39e-05,LEO
61671,STARLINK-32453,2024,94.11,-1.0,+,53.16,Active,0,LEO,USA,USA,Unknown,Unknown,Unknown,1 61671U 24193L   25295.52056101 -.00000559  00000+0 -67741-5 0  9993,2 61671  53.1614  12.6951 0000878 119.1470 240.9619 15.30196059 55373,15.30196059,8.78e-05,LEO
61672,STARLINK-32443,2024,94.11,-1.0,+,53.16,Active,0,LEO,USA,USA,Unknown,Unknown,Unknown,1 61672U 24193M   25295.51844836 -.00000140  00000+0  73980-5 0  9990,2 61672  53.1610  12.6819 0001047  99.8122 260.2997 15.30194651 55370,15.30194651,0.0001047,LEO
